2023-104A               
1 57424U 23104A   26065.78279804  .00015492  00000+0  48200-3 0  9993
2 57424  97.2792 135.5625 0009333 122.1915 238.0234 15.33350758146346
STARLINK-35237          
1 65645U 25210Z   26068.93269478  .00016453  00000+0  56643-3 0  9991
2 65645  53.1592 306.2754 0001214  94.9143 265.1996 15.30197138 27766
