[{"OBJECT_NAME":"OBJECT A","OBJECT_ID":"2023-104A","EPOCH":"2026-03-06T18:47:13.750656","MEAN_MOTION":15.33350758,"ECCENTRICITY":0.00093331,"INCLINATION":97.2792,"RA_OF_ASC_NODE":135.5625,"ARG_OF_PERICENTER":122.1915,"MEAN_ANOMALY":238.0234,"EPHEMERIS_TYPE":0,"CLASSIFICATION_TYPE":"U","NORAD_CAT_ID":57424,"ELEMENT_SET_NO":999,"REV_AT_EPOCH":14634,"BSTAR":0.00048200218,"MEAN_MOTION_DOT":0.00015492,"MEAN_MOTION_DDOT":0},{"OBJECT_NAME":"STARLINK-35237","OBJECT_ID":"2025-210Z","EPOCH":"2026-03-09T22:23:04.829856","MEAN_MOTION":15.30197139,"ECCENTRICITY":0.00012135,"INCLINATION":53.1592,"RA_OF_ASC_NODE":306.2754,"ARG_OF_PERICENTER":94.9143,"MEAN_ANOMALY":265.1996,"EPHEMERIS_TYPE":0,"CLASSIFICATION_TYPE":"U","NORAD_CAT_ID":65645,"ELEMENT_SET_NO":999,"REV_AT_EPOCH":2776,"BSTAR":0.0005664326,"MEAN_MOTION_DOT":0.00016453,"MEAN_MOTION_DDOT":0}]
